{
  "norad_id": 68792,
  "name": "FSI-SAT2",
  "history": [
    {
      "epoch": "2026-04-23T08:37:17.788224Z",
      "apogee_km": 556.3379718116539,
      "perigee_km": 538.2416929900537,
      "latitude_deg": 1.4242875204693137e-05,
      "longitude_deg": -76.69591737029516,
      "height_km": 546.3439037237443,
      "semi_major_axis_km": 6925.4268324008535,
      "eccentricity": 0.00130651,
      "inclination_deg": 97.5001,
      "raan_deg": 264.0358,
      "arg_perigee_deg": 296.3923,
      "mean_anomaly_deg": 63.5963,
      "mean_motion_rev_day": 15.06374461
    },
    {
      "epoch": "2026-04-24T19:41:40.995168Z",
      "apogee_km": 556.3956085479404,
      "perigee_km": 538.1775892287051,
      "latitude_deg": -4.3581259770647404e-05,
      "longitude_deg": 117.19099115231327,
      "height_km": 547.0907686585089,
      "semi_major_axis_km": 6925.423598888323,
      "eccentricity": 0.0013153,
      "inclination_deg": 97.5003,
      "raan_deg": 265.4598,
      "arg_perigee_deg": 291.0513,
      "mean_anomaly_deg": 68.9307,
      "mean_motion_rev_day": 15.06375516
    },
    {
      "epoch": "2026-04-25T16:25:10.379424Z",
      "apogee_km": 556.1137872307272,
      "perigee_km": 538.372348572776,
      "latitude_deg": -4.014458868955002e-05,
      "longitude_deg": 166.306817618693,
      "height_km": 547.6493531816647,
      "semi_major_axis_km": 6925.380067901751,
      "eccentricity": 0.0012809,
      "inclination_deg": 97.499,
      "raan_deg": 266.2992,
      "arg_perigee_deg": 287.5176,
      "mean_anomaly_deg": 72.4651,
      "mean_motion_rev_day": 15.06389719
    },
    {
      "epoch": "2026-05-05T09:10:04.336032Z",
      "apogee_km": 556.208619398988,
      "perigee_km": 537.7020027069302,
      "latitude_deg": 2.1930211038260877e-05,
      "longitude_deg": -85.0347533859204,
      "height_km": 552.9161070430443,
      "semi_major_axis_km": 6925.092311052959,
      "eccentricity": 0.0013362,
      "inclination_deg": 97.5012,
      "raan_deg": 275.7411,
      "arg_perigee_deg": 251.8447,
      "mean_anomaly_deg": 108.1326,
      "mean_motion_rev_day": 15.06483612
    },
    {
      "epoch": "2026-05-06T09:04:46.643232Z",
      "apogee_km": 556.2574974065901,
      "perigee_km": 537.6134018533503,
      "latitude_deg": -1.6424092124379215e-05,
      "longitude_deg": -83.72295294912834,
      "height_km": 553.4691984846004,
      "semi_major_axis_km": 6925.07244962997,
      "eccentricity": 0.00134613,
      "inclination_deg": 97.5014,
      "raan_deg": 276.7112,
      "arg_perigee_deg": 248.2388,
      "mean_anomaly_deg": 111.7407,
      "mean_motion_rev_day": 15.06490093
    },
    {
      "epoch": "2026-05-07T20:08:59.895168Z",
      "apogee_km": 556.2807984828123,
      "perigee_km": 537.5194878545408,
      "latitude_deg": -3.830315443281186e-05,
      "longitude_deg": 110.20464023839895,
      "height_km": 554.2434751955567,
      "semi_major_axis_km": 6925.037143168676,
      "eccentricity": 0.0013546,
      "inclination_deg": 97.5017,
      "raan_deg": 278.1343,
      "arg_perigee_deg": 242.9546,
      "mean_anomaly_deg": 117.0299,
      "mean_motion_rev_day": 15.06501614
    },
    {
      "epoch": "2026-05-08T08:54:09.933120Z",
      "apogee_km": 556.2814052278254,
      "perigee_km": 537.4938134626727,
      "latitude_deg": 2.843082629256095e-05,
      "longitude_deg": -81.09343330743772,
      "height_km": 554.512417786551,
      "semi_major_axis_km": 6925.024609345249,
      "eccentricity": 0.0013565,
      "inclination_deg": 97.5019,
      "raan_deg": 278.6518,
      "arg_perigee_deg": 241.0521,
      "mean_anomaly_deg": 118.9347,
      "mean_motion_rev_day": 15.06505704
    },
    {
      "epoch": "2026-05-09T08:48:50.889888Z",
      "apogee_km": 556.2791255591947,
      "perigee_km": 537.445896888471,
      "latitude_deg": 2.2935117850210957e-05,
      "longitude_deg": -79.7758936379389,
      "height_km": 555.0185855232453,
      "semi_major_axis_km": 6924.999511223833,
      "eccentricity": 0.0013598,
      "inclination_deg": 97.5019,
      "raan_deg": 279.622,
      "arg_perigee_deg": 237.3681,
      "mean_anomaly_deg": 122.6235,
      "mean_motion_rev_day": 15.06513894
    },
    {
      "epoch": "2026-05-10T16:41:44.858112Z",
      "apogee_km": 556.255159696303,
      "perigee_km": 537.4136974334624,
      "latitude_deg": 6.263143150533582e-05,
      "longitude_deg": 161.9838984511839,
      "height_km": 555.671246064696,
      "semi_major_axis_km": 6924.971428564882,
      "eccentricity": 0.0013604,
      "inclination_deg": 97.5022,
      "raan_deg": 280.916,
      "arg_perigee_deg": 232.3205,
      "mean_anomaly_deg": 127.679,
      "mean_motion_rev_day": 15.06523058
    },
    {
      "epoch": "2026-05-11T16:36:24.899904Z",
      "apogee_km": 556.2452360337338,
      "perigee_km": 537.3872034257656,
      "latitude_deg": -3.0315664600981934e-05,
      "longitude_deg": 163.30537452076626,
      "height_km": 556.1468843610163,
      "semi_major_axis_km": 6924.953219729749,
      "eccentricity": 0.0013616,
      "inclination_deg": 97.5024,
      "raan_deg": 281.8863,
      "arg_perigee_deg": 228.4654,
      "mean_anomaly_deg": 131.5406,
      "mean_motion_rev_day": 15.06529
    },
    {
      "epoch": "2026-05-12T08:32:51.398016Z",
      "apogee_km": 556.2356590862282,
      "perigee_km": 537.3693538947455,
      "latitude_deg": -2.845346422555391e-05,
      "longitude_deg": -75.8126954127988,
      "height_km": 556.4452504794972,
      "semi_major_axis_km": 6924.939506490487,
      "eccentricity": 0.0013622,
      "inclination_deg": 97.5025,
      "raan_deg": 282.5333,
      "arg_perigee_deg": 225.9041,
      "mean_anomaly_deg": 134.1066,
      "mean_motion_rev_day": 15.06533475
    },
    {
      "epoch": "2026-05-13T08:27:30.899808Z",
      "apogee_km": 556.2410378423892,
      "perigee_km": 537.3318418974804,
      "latitude_deg": 6.529457392521809e-07,
      "longitude_deg": -74.48897821976918,
      "height_km": 556.8879216127898,
      "semi_major_axis_km": 6924.923439869935,
      "eccentricity": 0.0013653,
      "inclination_deg": 97.5026,
      "raan_deg": 283.5036,
      "arg_perigee_deg": 222.0292,
      "mean_anomaly_deg": 137.9889,
      "mean_motion_rev_day": 15.06538718
    },
    {
      "epoch": "2026-05-13T22:48:18.446400Z",
      "apogee_km": 556.2461351766615,
      "perigee_km": 537.3037310747886,
      "latitude_deg": 1.9964721988981825e-05,
      "longitude_deg": 70.30591735179944,
      "height_km": 557.1425669402244,
      "semi_major_axis_km": 6924.911933125724,
      "eccentricity": 0.0013677,
      "inclination_deg": 97.5027,
      "raan_deg": 284.0858,
      "arg_perigee_deg": 219.6814,
      "mean_anomaly_deg": 140.3414,
      "mean_motion_rev_day": 15.06542473
    },
    {
      "epoch": "2026-05-14T22:42:57.535200Z",
      "apogee_km": 556.2584579975801,
      "perigee_km": 537.2629096590244,
      "latitude_deg": 9.33436388896763e-05,
      "longitude_deg": 71.63145391885497,
      "height_km": 557.5413489561755,
      "semi_major_axis_km": 6924.8976838283015,
      "eccentricity": 0.00137154,
      "inclination_deg": 97.5029,
      "raan_deg": 285.0562,
      "arg_perigee_deg": 215.8106,
      "mean_anomaly_deg": 144.2204,
      "mean_motion_rev_day": 15.06547123
    }
  ]
}